ONEWEB-0300             
1 49089U 21075Q   24272.51068463 -.00000244  00000+0 -71295-3 0  9993
2 49089  87.8851 115.4782 0001433  94.9907 265.1385 13.12443633153993
ONEWEB-0301             
1 49090U 21075R   24271.80834109  .00000200  00000+0  51964-3 0  9995
2 49090  87.8854 115.6221 0001474  92.3890 267.7408 13.12443601152275
ONEWEB-0302             
1 49091U 21075S   24271.87158921  .00000458  00000+0  12365-2 0  9990
2 49091  87.8856 115.6086 0001799  76.6844 283.4485 13.12444496152263
ONEWEB-0304             
1 49092U 21075T   24272.31528403 -.00003189  00000+0 -82469-2 0  9995
2 49092  87.9105 130.7429 0001735  74.3604 285.7719 13.17672000152006
ONEWEB-0305             
1 49093U 21075U   24272.08066880  .00003774  00000+0  96974-2 0  9990
2 49093  87.9106 130.7744 0001668  63.6528 296.4774 13.17539327151990
ONEWEB-0308             
1 49094U 21075V   24272.47501817  .00000483  00000+0  13065-2 0  9992
2 49094  87.8853 115.4863 0001617  84.7726 275.3587 13.12444012153350
ONEWEB-0309             
1 49095U 21075W   24271.85629927  .00000099  00000+0  22197-3 0  9997
2 49095  87.9112 130.8257 0002272  76.9643 283.1742 13.17722604150962
ONEWEB-0310             
1 49096U 21075X   24272.48961765  .00000349  00000+0  93497-3 0  9996
2 49096  87.8862 115.5008 0001819  82.1869 277.9466 13.12442465153981
